H1 CPF 01  gfz 2022 11 16 01  8201 tandemx   
H2 1003001  6202 36605    2022 11 16 00 59 42 2022 11 21 00 00 42   120 1 1  0 0 0
H9
10 0 59903  55422.000000  0   -5174378.886  -3848228.793  -2433734.504
10 0 59903  55542.000000  0   -4980216.511  -3480633.325  -3255624.218
10 0 59903  55662.000000  0   -4692373.542  -3056623.139  -4020399.088
10 0 59903  55782.000000  0   -4315043.946  -2585244.527  -4714717.442
10 0 59903  55902.000000  0   -3854132.298  -2076263.834  -5326501.112
10 0 59903  56022.000000  0   -3317152.883  -1539963.865  -5845138.212
10 0 59903  56142.000000  0   -2713099.904   -986935.599  -6261657.363
10 0 59903  56262.000000  0   -2052291.351   -427870.002  -6568871.786
10 0 59903  56382.000000  0   -1346189.300    126645.816  -6761491.389
10 0 59903  56502.000000  0    -607202.249    666324.033  -6836202.729
10 0 59903  56622.000000  0     151528.470   1181361.897  -6791719.977
10 0 59903  56742.000000  0     916355.845   1662614.639  -6628804.545
10 0 59903  56862.000000  0    1673366.798   2101754.170  -6350256.066
10 0 59903  56982.000000  0    2408630.306   2491411.602  -5960869.301
10 0 59903  57102.000000  0    3108450.078   2825300.711  -5467359.961
10 0 59903  57222.000000  0    3759616.626   3098320.063  -4878259.270
10 0 59903  57342.000000  0    4349657.922   3306634.110  -4203779.110
10 0 59903  57462.000000  0    4867082.969   3447729.930  -3455645.178
10 0 59903  57582.000000  0    5301611.702   3520447.766  -2646900.531
10 0 59903  57702.000000  0    5644386.419   3524985.924  -1791683.483
10 0 59903  57822.000000  0    5888160.635   3462877.794   -904981.005
10 0 59903  57942.000000  0    6027458.302   3336940.843     -2363.394
10 0 59903  58062.000000  0    6058700.494   3151199.025    900294.673
10 0 59903  58182.000000  0    5980294.811   2910779.748   1787101.368
10 0 59903  58302.000000  0    5792684.109   2621789.146   2642436.012
10 0 59903  58422.000000  0    5498355.103   2291167.848   3451233.338
10 0 59903  58542.000000  0    5101804.099   1926530.277   4199256.360
10 0 59903  58662.000000  0    4609461.682   1535993.003   4873350.991
10 0 59903  58782.000000  0    4029581.742   1127995.963   5461677.036
10 0 59903  58902.000000  0    3372094.838    711121.312   5953916.751
10 0 59903  59022.000000  0    2648427.710    293913.522   6341450.425
10 0 59903  59142.000000  0    1871299.140   -115293.634   6617499.897
10 0 59903  59262.000000  0    1054493.365   -508541.886   6777242.206
10 0 59903  59382.000000  0     212612.535   -878402.487   6817889.840
10 0 59903  59502.000000  0    -639185.389  -1218115.695   6738735.238
10 0 59903  59622.000000  0   -1485459.037  -1521714.254   6541161.576
10 0 59903  59742.000000  0   -2310762.160  -1784128.091   6228618.702
10 0 59903  59862.000000  0   -3099923.363  -2001268.282   5806567.348
10 0 59903  59982.000000  0   -3838327.410  -2170091.829   5282392.322
10 0 59903  60102.000000  0   -4512191.424  -2288645.006   4665278.537
10 0 59903  60222.000000  0   -5108828.287  -2356083.278   3966054.293
10 0 59903  60342.000000  0   -5616892.417  -2372666.838   3197004.103
10 0 59903  60462.000000  0   -6026603.387  -2339732.753   2371654.890
10 0 59903  60582.000000  0   -6329943.509  -2259645.284   1504537.600
10 0 59903  60702.000000  0   -6520823.328  -2135723.836    610925.336
10 0 59903  60822.000000  0   -6595207.203  -1972149.475   -293443.291
10 0 59903  60942.000000  0   -6551199.692  -1773853.268  -1192650.200
10 0 59903  61062.000000  0   -6389087.202  -1546389.322  -2070887.515
10 0 59903  61182.000000  0   -6111335.435  -1295796.266  -2912742.816
10 0 59903  61302.000000  0   -5722543.581  -1028450.793  -3703474.376
10 0 59903  61422.000000  0   -5229357.222   -750916.589  -4429271.033
10 0 59903  61542.000000  0   -4640342.538   -469792.314  -5077491.533
10 0 59903  61662.000000  0   -3965825.097   -191562.968  -5636879.096
10 0 59903  61782.000000  0   -3217697.725     77542.127  -6097747.752
10 0 59903  61902.000000  0   -2409203.347    331681.945  -6452137.918
10 0 59903  62022.000000  0   -1554697.641    565523.719  -6693942.129
10 0 59903  62142.000000  0    -669394.401    774348.789  -6818999.797
10 0 59903  62262.000000  0     230900.880    954143.995  -6825159.870
10 0 59903  62382.000000  0    1130065.090   1101675.488  -6712313.800
10 0 59903  62502.000000  0    2011939.662   1214545.305  -6482400.033
10 0 59903  62622.000000  0    2860615.399   1291230.322  -6139374.353
10 0 59903  62742.000000  0    3660715.220   1331101.916  -5689148.183
10 0 59903  62862.000000  0    4397669.605   1334426.177  -5139496.441
10 0 59903  62982.000000  0    5057983.833   1302345.218  -4499935.699
10 0 59903  63102.000000  0    5629491.121   1236839.539  -3781569.984
10 0 59903  63222.000000  0    6101585.098   1140671.535  -2996907.128
10 0 59903  63342.000000  0    6465427.779   1017311.159  -2159648.164
10 0 59903  63462.000000  0    6714128.244    870845.521  -1284450.886
10 0 59903  63582.000000  0    6842885.111    705873.487   -386671.348
10 0 59903  63702.000000  0    6849088.212    527388.230    517910.465
10 0 59903  63822.000000  0    6732377.939    340651.282   1413374.380
10 0 59903  63942.000000  0    6494660.518    151059.262   2283949.145
10 0 59903  64062.000000  0    6140075.726    -35991.491   3114299.979
10 0 59903  64182.000000  0    5674919.689   -215240.031   3889806.303
10 0 59903  64302.000000  0    5107524.540   -381690.570   4596823.668
10 0 59903  64422.000000  0    4448100.958   -530734.987   5222926.907
10 0 59903  64542.000000  0    3708542.715   -658265.418   5757128.261
10 0 59903  64662.000000  0    2902202.607   -760772.546   6190065.879
10 0 59903  64782.000000  0    2043644.049   -835429.288   6514162.663
10 0 59903  64902.000000  0    1148373.510   -880157.894   6723753.617
10 0 59903  65022.000000  0     232556.322   -893679.404   6815179.812
10 0 59903  65142.000000  0    -687276.446   -875544.030   6786846.920
10 0 59903  65262.000000  0   -1594525.422   -826142.833   6639250.331
10 0 59903  65382.000000  0   -2472821.027   -746699.557   6374966.573
10 0 59903  65502.000000  0   -3306317.436   -639243.188   5998611.654
10 0 59903  65622.000000  0   -4079980.120   -506561.551   5516766.810
10 0 59903  65742.000000  0   -4779862.055   -352137.325   4937870.018
10 0 59903  65862.000000  0   -5393362.282   -180066.946   4272073.371
10 0 59903  65982.000000  0   -5909461.282      5035.832   3531068.703
10 0 59903  66102.000000  0   -6318927.769    198150.012   2727884.552
10 0 59903  66222.000000  0   -6614494.279    393968.999   1876657.321
10 0 59903  66342.000000  0   -6790995.578    587030.568    992378.749
10 0 59903  66462.000000  0   -6845466.008    771851.530     90625.190
10 0 59903  66582.000000  0   -6777192.354    943064.438   -812725.693
10 0 59903  66702.000000  0   -6587720.082   1095552.360  -1701783.762
10 0 59903  66822.000000  0   -6280814.841   1224577.888  -2560932.802
10 0 59903  66942.000000  0   -5862381.933   1325904.859  -3375112.045
10 0 59903  67062.000000  0   -5340340.308   1395907.608  -4130085.046
10 0 59903  67182.000000  0   -4724459.479   1431665.655  -4812687.436
10 0 59903  67302.000000  0   -4026164.224   1431042.322  -5411051.662
10 0 59903  67422.000000  0   -3258312.283   1392745.522  -5914804.501
10 0 59903  67542.000000  0   -2434950.902   1316369.369  -6315236.538
10 0 59903  67662.000000  0   -1571056.228   1202416.673  -6605441.656
10 0 59903  67782.000000  0    -682260.291   1052302.474  -6780424.175
10 0 59903  67902.000000  0     215427.346    868337.672  -6837174.420
10 0 59903  68022.000000  0    1105899.853    653694.467  -6774715.199
10 0 59903  68142.000000  0    1973235.863    412352.709  -6594119.217
10 0 59903  68262.000000  0    2801978.203    149028.143  -6298492.032
10 0 59903  68382.000000  0    3577404.767   -130915.733  -5892924.673
10 0 59903  68502.000000  0    4285787.296   -421572.357  -5384413.866
10 0 59903  68622.000000  0    4914634.856   -716610.655  -4781753.335
10 0 59903  68742.000000  0    5452920.468  -1009406.689  -4095393.658
10 0 59903  68862.000000  0    5891283.072  -1293185.362  -3337270.781
10 0 59903  68982.000000  0    6222201.290  -1561169.781  -2520606.195
10 0 59903  69102.000000  0    6440134.842  -1806735.170  -1659680.832
10 0 59903  69222.000000  0    6541629.093  -2023563.419   -769585.736
10 0 59903  69342.000000  0    6525379.564  -2205794.105    134045.280
10 0 59903  69462.000000  0    6392254.403  -2348168.837   1035316.390
10 0 59903  69582.000000  0    6145272.814  -2446164.075   1918358.043
10 0 59903  69702.000000  0    5789539.424  -2496109.844   2767615.680
10 0 59903  69822.000000  0    5332136.912  -2495290.500   3568132.452
10 0 59903  69942.000000  0    4781978.180  -2442024.708   4305818.927
10 0 59903  70062.000000  0    4149625.552  -2335723.128   4967703.313
10 0 59903  70182.000000  0    3447080.826  -2176923.718   5542161.577
10 0 59903  70302.000000  0    2687547.621  -1967302.605   6019120.008
10 0 59903  70422.000000  0    1885176.178  -1709660.349   6390226.571
10 0 59903  70542.000000  0    1054794.832  -1407885.464   6648991.427
10 0 59903  70662.000000  0     211632.647  -1066895.065   6790894.652
10 0 59903  70782.000000  0    -628960.927   -692553.493   6813459.619
10 0 59903  70902.000000  0   -1451794.492   -291571.139   6716292.651
10 0 59903  71022.000000  0   -2242107.961    128615.554   6501089.405
10 0 59903  71142.000000  0   -2985836.426    559981.388   6171607.532
10 0 59903  71262.000000  0   -3669861.298    994064.530   5733605.803
10 0 59903  71382.000000  0   -4282245.327   1422130.996   5194749.851
10 0 59903  71502.000000  0   -4812446.997   1835349.140   4564483.963
10 0 59903  71622.000000  0   -5251509.434   2224971.408   3853870.194
10 0 59903  71742.000000  0   -5592219.475   2582518.683   3075396.892
10 0 59903  71862.000000  0   -5829233.650   2899963.404   2242760.320
99
